{
  "type": "FeatureCollection",
  "features": [
    {
      "type": "Feature",
      "properties": {
        "norad_id": 48859,
        "name": "GPS BIII-5  (PRN 11)",
        "group": "gps-ops",
        "lat": 12.05494851238817,
        "lon": -11.361095724874051,
        "alt_km": 20232.973783250796,
        "timestamp": "2025-12-08T13:49:32.051577+00:00",
        "meta_object_name": "GPS BIII-5  (PRN 11)",
        "meta_object_id": "2021-054A",
        "meta_epoch": "2025-11-30T17:12:22.002912",
        "meta_mean_motion": 2.00553932,
        "meta_eccentricity": 0.0024653,
        "meta_inclination": 55.2606,
        "meta_ra_of_asc_node": 340.4377,
        "meta_arg_of_pericenter": 232.9477,
        "meta_mean_anomaly": 227.2059,
        "meta_ephemeris_type": 0,
        "meta_classification_type": "U",
        "meta_norad_cat_id": 48859,
        "meta_element_set_no": 999,
        "meta_rev_at_epoch": 3277,
        "meta_bstar": 0,
        "meta_mean_motion_dot": -5.5e-07,
        "meta_mean_motion_ddot": 0,
        "tle_line1": "1 48859U 21054A   25334.71692133 -.00000055  00000+0  00000+0 0  9994",
        "tle_line2": "2 48859  55.2606 340.4377 0024653 232.9477 227.2059  2.00553932 32777"
      },
      "geometry": {
        "type": "Point",
        "coordinates": [
          -11.361095724874051,
          12.05494851238817
        ]
      }
    },
    {
      "type": "Feature",
      "properties": {
        "norad_id": 55268,
        "name": "GPS BIII-6  (PRN 28)",
        "group": "gps-ops",
        "lat": 43.41797560827938,
        "lon": -162.64791091266616,
        "alt_km": 20172.873427898034,
        "timestamp": "2025-12-08T13:49:32.051595+00:00",
        "meta_object_name": "GPS BIII-6  (PRN 28)",
        "meta_object_id": "2023-009A",
        "meta_epoch": "2025-12-08T05:52:26.989248",
        "meta_mean_motion": 2.00555991,
        "meta_eccentricity": 0.0003615,
        "meta_inclination": 55.1046,
        "meta_ra_of_asc_node": 156.0217,
        "meta_arg_of_pericenter": 356.7859,
        "meta_mean_anomaly": 180.9144,
        "meta_ephemeris_type": 0,
        "meta_classification_type": "U",
        "meta_norad_cat_id": 55268,
        "meta_element_set_no": 999,
        "meta_rev_at_epoch": 2141,
        "meta_bstar": 0,
        "meta_mean_motion_dot": 5.9e-07,
        "meta_mean_motion_ddot": 0,
        "tle_line1": "1 55268U 23009A   25342.24475682  .00000059  00000+0  00000+0 0  9996",
        "tle_line2": "2 55268  55.1046 156.0217 0003615 356.7859 180.9144  2.00555991 21410"
      },
      "geometry": {
        "type": "Point",
        "coordinates": [
          -162.64791091266616,
          43.41797560827938
        ]
      }
    },
    {
      "type": "Feature",
      "properties": {
        "norad_id": 62339,
        "name": "GPS BIII-7  (PRN 01)",
        "group": "gps-ops",
        "lat": 35.87498655172312,
        "lon": 131.36497771776294,
        "alt_km": 20205.023753261532,
        "timestamp": "2025-12-08T13:49:32.051618+00:00",
        "meta_object_name": "GPS BIII-7  (PRN 01)",
        "meta_object_id": "2024-242A",
        "meta_epoch": "2025-12-07T21:14:38.700960",
        "meta_mean_motion": 2.00567469,
        "meta_eccentricity": 0.00119344,
        "meta_inclination": 54.9247,
        "meta_ra_of_asc_node": 341.9365,
        "meta_arg_of_pericenter": 343.8064,
        "meta_mean_anomaly": 11.4848,
        "meta_ephemeris_type": 0,
        "meta_classification_type": "U",
        "meta_norad_cat_id": 62339,
        "meta_element_set_no": 999,
        "meta_rev_at_epoch": 741,
        "meta_bstar": 0,
        "meta_mean_motion_dot": -8.7e-07,
        "meta_mean_motion_ddot": 0,
        "tle_line1": "1 62339U 24242A   25341.88517015 -.00000087  00000+0  00000+0 0  9991",
        "tle_line2": "2 62339  54.9247 341.9365 0011934 343.8064  11.4848  2.00567469  7410"
      },
      "geometry": {
        "type": "Point",
        "coordinates": [
          131.36497771776294,
          35.87498655172312
        ]
      }
    },
    {
      "type": "Feature",
      "properties": {
        "norad_id": 64202,
        "name": "GPS BIII-8  (PRN 21)",
        "group": "gps-ops",
        "lat": -29.007758893838584,
        "lon": 16.078119601676494,
        "alt_km": 20173.14846587382,
        "timestamp": "2025-12-08T13:49:32.051640+00:00",
        "meta_object_name": "GPS BIII-8  (PRN 21)",
        "meta_object_id": "2025-116A",
        "meta_epoch": "2025-12-08T05:53:38.601888",
        "meta_mean_motion": 2.0055836,
        "meta_eccentricity": 0.00052097,
        "meta_inclination": 55.1026,
        "meta_ra_of_asc_node": 38.8223,
        "meta_arg_of_pericenter": 307.4427,
        "meta_mean_anomaly": 137.7304,
        "meta_ephemeris_type": 0,
        "meta_classification_type": "U",
        "meta_norad_cat_id": 64202,
        "meta_element_set_no": 999,
        "meta_rev_at_epoch": 404,
        "meta_bstar": 0,
        "meta_mean_motion_dot": -7.9e-07,
        "meta_mean_motion_ddot": 0,
        "tle_line1": "1 64202U 25116A   25342.24558567 -.00000079  00000+0  00000+0 0  9992",
        "tle_line2": "2 64202  55.1026  38.8223 0005209 307.4427 137.7304  2.00558360  4046"
      },
      "geometry": {
        "type": "Point",
        "coordinates": [
          16.078119601676494,
          -29.007758893838584
        ]
      }
    }
  ]
}